{"type":"FeatureCollection","features":[{"type":"Feature","properties":{"direction":"westbound","between":"Expo / Vermont \u2192 Expo / Western","cross_street":"Exposition / Budlong","nearest_station":"Expo / Vermont","dist_to_station_m":422,"length_m":50,"rides_rough":2,"rides_covering":2,"severity":3.7,"start_m":16225,"end_m":16275,"peak_bin":649,"peak_start_m":16225,"peak_end_m":16250,"google_maps":"https://www.google.com/maps?q=34.018292,-118.296103","status":"Worth inspecting","location_precision":"Approximate corridor location; physical track unverified","pass_evidence":[{"pass_id":"WB-1","covered":true,"score":3.978,"elevated":true,"threshold":1.793,"recordings":["R02","R06","R09"]},{"pass_id":"WB-2","covered":true,"score":3.494,"elevated":true,"threshold":1.626,"recordings":["R03","R08","R10"]}],"evidence_scope":"Counts and severity refer to the selected peak 25 m slice; each adjacent included slice independently meets the candidate rule.","id":"WB-01","rank":1,"label":"WB-01 \u00b7 3.7\u00d7"},"geometry":{"type":"Point","coordinates":[-118.29610316272719,34.018292]}},{"type":"Feature","properties":{"id":"WB-01-zone","direction":"westbound","rank":1},"geometry":{"type":"LineString","coordinates":[[-118.29596766997358,34.018292],[-118.296323,34.018292],[-118.2965096387086,34.0182927670084]]}},{"type":"Feature","properties":{"direction":"westbound","between":"Expo / La Brea / Ethel Bradley \u2192 La Cienega / Jefferson","cross_street":"Jefferson / Hauser","nearest_station":"La Cienega / Jefferson","dist_to_station_m":572,"length_m":25,"rides_rough":2,"rides_covering":2,"severity":2.4,"start_m":22750,"end_m":22775,"peak_bin":910,"peak_start_m":22750,"peak_end_m":22775,"google_maps":"https://www.google.com/maps?q=34.025912,-118.365935","status":"Worth inspecting","location_precision":"Approximate corridor location; physical track unverified","pass_evidence":[{"pass_id":"WB-1","covered":true,"score":2.72,"elevated":true,"threshold":1.793,"recordings":["R06","R09"]},{"pass_id":"WB-2","covered":true,"score":1.999,"elevated":true,"threshold":1.626,"recordings":["R03","R08","R10"]}],"evidence_scope":"Counts and severity refer to the selected peak 25 m slice; each adjacent included slice independently meets the candidate rule.","id":"WB-02","rank":2,"label":"WB-02 \u00b7 2.4\u00d7"},"geometry":{"type":"Point","coordinates":[-118.36593503460843,34.02591175352493]}},{"type":"Feature","properties":{"id":"WB-02-zone","direction":"westbound","rank":2},"geometry":{"type":"LineString","coordinates":[[-118.36580054701867,34.02589805571486],[-118.366016,34.02592],[-118.36606960018325,34.025924892962784]]}},{"type":"Feature","properties":{"direction":"westbound","between":"La Cienega / Jefferson \u2192 Culver City","cross_street":null,"nearest_station":"Culver City","dist_to_station_m":464,"length_m":25,"rides_rough":2,"rides_covering":2,"severity":2.4,"start_m":24425,"end_m":24450,"peak_bin":977,"peak_start_m":24425,"peak_end_m":24450,"google_maps":"https://www.google.com/maps?q=34.027552,-118.383982","status":"Worth inspecting","location_precision":"Approximate corridor location; physical track unverified","pass_evidence":[{"pass_id":"WB-1","covered":true,"score":2.935,"elevated":true,"threshold":1.793,"recordings":["R06","R09"]},{"pass_id":"WB-2","covered":true,"score":1.921,"elevated":true,"threshold":1.626,"recordings":["R03","R08","R10"]}],"evidence_scope":"Counts and severity refer to the selected peak 25 m slice; each adjacent included slice independently meets the candidate rule.","id":"WB-03","rank":3,"label":"WB-03 \u00b7 2.4\u00d7"},"geometry":{"type":"Point","coordinates":[-118.38398157642771,34.02755210453119]}},{"type":"Feature","properties":{"id":"WB-03-zone","direction":"westbound","rank":3},"geometry":{"type":"LineString","coordinates":[[-118.38384710692826,34.02753852265187],[-118.383939,34.027549],[-118.38411655120439,34.027561946441985]]}},{"type":"Feature","properties":{"direction":"westbound","between":"Expo / Vermont \u2192 Expo / Western","cross_street":"Exposition / Catalina","nearest_station":"Expo / Vermont","dist_to_station_m":322,"length_m":25,"rides_rough":2,"rides_covering":2,"severity":2.2,"start_m":16125,"end_m":16150,"peak_bin":645,"peak_start_m":16125,"peak_end_m":16150,"google_maps":"https://www.google.com/maps?q=34.018289,-118.295019","status":"Worth inspecting","location_precision":"Approximate corridor location; physical track unverified","pass_evidence":[{"pass_id":"WB-1","covered":true,"score":2.668,"elevated":true,"threshold":1.793,"recordings":["R09"]},{"pass_id":"WB-2","covered":true,"score":1.83,"elevated":true,"threshold":1.626,"recordings":["R03","R10"]}],"evidence_scope":"Counts and severity refer to the selected peak 25 m slice; each adjacent included slice independently meets the candidate rule.","id":"WB-04","rank":4,"label":"WB-04 \u00b7 2.2\u00d7"},"geometry":{"type":"Point","coordinates":[-118.29501922823344,34.018289401984894]}},{"type":"Feature","properties":{"id":"WB-04-zone","direction":"westbound","rank":4},"geometry":{"type":"LineString","coordinates":[[-118.29488373667665,34.01828896116374],[-118.294919,34.018289],[-118.29515471941096,34.01828994539871]]}},{"type":"Feature","properties":{"direction":"westbound","between":"Expo / Vermont \u2192 Expo / Western","cross_street":"Exposition / Harvard","nearest_station":"Expo / Western","dist_to_station_m":206,"length_m":25,"rides_rough":2,"rides_covering":2,"severity":2.2,"start_m":17200,"end_m":17225,"peak_bin":688,"peak_start_m":17200,"peak_end_m":17225,"google_maps":"https://www.google.com/maps?q=34.018324,-118.306671","status":"Worth inspecting","location_precision":"Approximate corridor location; physical track unverified","pass_evidence":[{"pass_id":"WB-1","covered":true,"score":2.526,"elevated":true,"threshold":1.793,"recordings":["R02","R06","R09"]},{"pass_id":"WB-2","covered":true,"score":1.937,"elevated":true,"threshold":1.626,"recordings":["R03","R08"]}],"evidence_scope":"Counts and severity refer to the selected peak 25 m slice; each adjacent included slice independently meets the candidate rule.","id":"WB-05","rank":5,"label":"WB-05 \u00b7 2.2\u00d7"},"geometry":{"type":"Point","coordinates":[-118.30667142019087,34.01832394829711]}},{"type":"Feature","properties":{"id":"WB-05-zone","direction":"westbound","rank":5},"geometry":{"type":"LineString","coordinates":[[-118.30653593758662,34.018322569339304],[-118.30680690279513,34.018325327254914]]}},{"type":"Feature","properties":{"direction":"westbound","between":"Expo / Western \u2192 Expo / Crenshaw E-Line","cross_street":null,"nearest_station":"Expo / Western","dist_to_station_m":468,"length_m":25,"rides_rough":2,"rides_covering":2,"severity":2.1,"start_m":17875,"end_m":17900,"peak_bin":715,"peak_start_m":17875,"peak_end_m":17900,"google_maps":"https://www.google.com/maps?q=34.018405,-118.313987","status":"Worth inspecting","location_precision":"Approximate corridor location; physical track unverified","pass_evidence":[{"pass_id":"WB-1","covered":true,"score":2.059,"elevated":true,"threshold":1.793,"recordings":["R09"]},{"pass_id":"WB-2","covered":true,"score":2.222,"elevated":true,"threshold":1.626,"recordings":["R03","R10"]}],"evidence_scope":"Counts and severity refer to the selected peak 25 m slice; each adjacent included slice independently meets the candidate rule.","id":"WB-06","rank":6,"label":"WB-06 \u00b7 2.1\u00d7"},"geometry":{"type":"Point","coordinates":[-118.31398704054831,34.01840541264398]}},{"type":"Feature","properties":{"id":"WB-06-zone","direction":"westbound","rank":6},"geometry":{"type":"LineString","coordinates":[[-118.31385158245644,34.01840286442245],[-118.31412249864017,34.01840796086551]]}},{"type":"Feature","properties":{"direction":"westbound","between":"Expo / Vermont \u2192 Expo / Western","cross_street":"Exposition / Normandie","nearest_station":"Expo / Western","dist_to_station_m":756,"length_m":25,"rides_rough":2,"rides_covering":2,"severity":2.0,"start_m":16650,"end_m":16675,"peak_bin":666,"peak_start_m":16650,"peak_end_m":16675,"google_maps":"https://www.google.com/maps?q=34.018303,-118.300710","status":"Worth inspecting","location_precision":"Approximate corridor location; physical track unverified","pass_evidence":[{"pass_id":"WB-1","covered":true,"score":2.328,"elevated":true,"threshold":1.793,"recordings":["R02","R06","R09"]},{"pass_id":"WB-2","covered":true,"score":1.743,"elevated":true,"threshold":1.626,"recordings":["R03","R08","R10"]}],"evidence_scope":"Counts and severity refer to the selected peak 25 m slice; each adjacent included slice independently meets the candidate rule.","id":"WB-07","rank":7,"label":"WB-07 \u00b7 2.0\u00d7"},"geometry":{"type":"Point","coordinates":[-118.30070986591878,34.01830316269211]}},{"type":"Feature","properties":{"id":"WB-07-zone","direction":"westbound","rank":7},"geometry":{"type":"LineString","coordinates":[[-118.30057437333346,34.01830334027086],[-118.300834,34.018303],[-118.30084535844502,34.01830303390581]]}},{"type":"Feature","properties":{"direction":"eastbound","between":"Expo / La Brea / Ethel Bradley \u2192 La Cienega / Jefferson","cross_street":"Jefferson / Clyde","nearest_station":"La Cienega / Jefferson","dist_to_station_m":422,"length_m":100,"rides_rough":2,"rides_covering":2,"severity":3.2,"start_m":22825,"end_m":22925,"peak_bin":916,"peak_start_m":22900,"peak_end_m":22925,"google_maps":"https://www.google.com/maps?q=34.026050,-118.367552","status":"Worth inspecting","location_precision":"Approximate corridor location; physical track unverified","pass_evidence":[{"pass_id":"EB-1","covered":true,"score":3.406,"elevated":true,"threshold":1.728,"recordings":["R05","R07"]},{"pass_id":"EB-2","covered":false,"score":null,"elevated":false,"threshold":1.532,"recordings":[]},{"pass_id":"EB-3","covered":true,"score":3.063,"elevated":true,"threshold":1.829,"recordings":["R01","R11"]}],"evidence_scope":"Counts and severity refer to the selected peak 25 m slice; each adjacent included slice independently meets the candidate rule.","id":"EB-01","rank":1,"label":"EB-01 \u00b7 3.2\u00d7"},"geometry":{"type":"Point","coordinates":[-118.36755239590823,34.02604966401862]}},{"type":"Feature","properties":{"id":"EB-01-zone","direction":"eastbound","rank":1},"geometry":{"type":"LineString","coordinates":[[-118.36660835639296,34.025973903778855],[-118.366654,34.025978],[-118.367251,34.026028],[-118.36768738524185,34.02605936690893]]}},{"type":"Feature","properties":{"direction":"eastbound","between":"Expo / Vermont \u2192 Expo / Western","cross_street":"Exposition / Budlong","nearest_station":"Expo / Vermont","dist_to_station_m":422,"length_m":50,"rides_rough":3,"rides_covering":3,"severity":2.8,"start_m":16200,"end_m":16250,"peak_bin":649,"peak_start_m":16225,"peak_end_m":16250,"google_maps":"https://www.google.com/maps?q=34.018292,-118.296103","status":"Worth inspecting","location_precision":"Approximate corridor location; physical track unverified","pass_evidence":[{"pass_id":"EB-1","covered":true,"score":2.822,"elevated":true,"threshold":1.728,"recordings":["R05","R07"]},{"pass_id":"EB-2","covered":true,"score":3.054,"elevated":true,"threshold":1.532,"recordings":["R04"]},{"pass_id":"EB-3","covered":true,"score":2.355,"elevated":true,"threshold":1.829,"recordings":["R01"]}],"evidence_scope":"Counts and severity refer to the selected peak 25 m slice; each adjacent included slice independently meets the candidate rule.","id":"EB-02","rank":2,"label":"EB-02 \u00b7 2.8\u00d7"},"geometry":{"type":"Point","coordinates":[-118.29610316272719,34.018292]}},{"type":"Feature","properties":{"id":"EB-02-zone","direction":"eastbound","rank":2},"geometry":{"type":"LineString","coordinates":[[-118.29569668446635,34.018292],[-118.29623865548082,34.018292]]}},{"type":"Feature","properties":{"direction":"eastbound","between":"Expo / Vermont \u2192 Expo / Western","cross_street":"Exposition / Halldale","nearest_station":"Expo / Western","dist_to_station_m":506,"length_m":25,"rides_rough":2,"rides_covering":3,"severity":2.4,"start_m":16900,"end_m":16925,"peak_bin":676,"peak_start_m":16900,"peak_end_m":16925,"google_maps":"https://www.google.com/maps?q=34.018305,-118.303420","status":"Worth inspecting","location_precision":"Approximate corridor location; physical track unverified","pass_evidence":[{"pass_id":"EB-1","covered":true,"score":2.938,"elevated":true,"threshold":1.728,"recordings":["R05","R07"]},{"pass_id":"EB-2","covered":true,"score":2.37,"elevated":true,"threshold":1.532,"recordings":["R04"]},{"pass_id":"EB-3","covered":true,"score":1.252,"elevated":false,"threshold":1.829,"recordings":["R11"]}],"evidence_scope":"Counts and severity refer to the selected peak 25 m slice; each adjacent included slice independently meets the candidate rule.","id":"EB-03","rank":3,"label":"EB-03 \u00b7 2.4\u00d7"},"geometry":{"type":"Point","coordinates":[-118.30341970780853,34.01830531320655]}},{"type":"Feature","properties":{"id":"EB-03-zone","direction":"eastbound","rank":3},"geometry":{"type":"LineString","coordinates":[[-118.30328421509219,34.01830522962066],[-118.30355520052485,34.01830539679243]]}},{"type":"Feature","properties":{"direction":"eastbound","between":"Expo / La Brea / Ethel Bradley \u2192 La Cienega / Jefferson","cross_street":"La Cienega Station Terminal","nearest_station":"La Cienega / Jefferson","dist_to_station_m":122,"length_m":50,"rides_rough":2,"rides_covering":3,"severity":2.3,"start_m":23175,"end_m":23225,"peak_bin":928,"peak_start_m":23200,"peak_end_m":23225,"google_maps":"https://www.google.com/maps?q=34.026293,-118.370791","status":"Worth inspecting","location_precision":"Approximate corridor location; physical track unverified","pass_evidence":[{"pass_id":"EB-1","covered":true,"score":2.309,"elevated":true,"threshold":1.728,"recordings":["R05","R07"]},{"pass_id":"EB-2","covered":true,"score":1.481,"elevated":false,"threshold":1.532,"recordings":["R04"]},{"pass_id":"EB-3","covered":true,"score":2.729,"elevated":true,"threshold":1.829,"recordings":["R11"]}],"evidence_scope":"Counts and severity refer to the selected peak 25 m slice; each adjacent included slice independently meets the candidate rule.","id":"EB-04","rank":4,"label":"EB-04 \u00b7 2.3\u00d7"},"geometry":{"type":"Point","coordinates":[-118.37079097503168,34.026293345339084]}},{"type":"Feature","properties":{"id":"EB-04-zone","direction":"eastbound","rank":4},"geometry":{"type":"LineString","coordinates":[[-118.37038614582589,34.02626294562362],[-118.370607,34.02628],[-118.37092595513174,34.02630313664168]]}},{"type":"Feature","properties":{"direction":"eastbound","between":"Expo / Vermont \u2192 Expo / Western","cross_street":"Exposition / Catalina","nearest_station":"Expo / Vermont","dist_to_station_m":296,"length_m":25,"rides_rough":3,"rides_covering":3,"severity":2.2,"start_m":16100,"end_m":16125,"peak_bin":644,"peak_start_m":16100,"peak_end_m":16125,"google_maps":"https://www.google.com/maps?q=34.018289,-118.294748","status":"Worth inspecting","location_precision":"Approximate corridor location; physical track unverified","pass_evidence":[{"pass_id":"EB-1","covered":true,"score":1.95,"elevated":true,"threshold":1.728,"recordings":["R05","R07"]},{"pass_id":"EB-2","covered":true,"score":2.166,"elevated":true,"threshold":1.532,"recordings":["R04"]},{"pass_id":"EB-3","covered":true,"score":2.477,"elevated":true,"threshold":1.829,"recordings":["R01"]}],"evidence_scope":"Counts and severity refer to the selected peak 25 m slice; each adjacent included slice independently meets the candidate rule.","id":"EB-05","rank":5,"label":"EB-05 \u00b7 2.2\u00d7"},"geometry":{"type":"Point","coordinates":[-118.29474824404188,34.01828881194278]}},{"type":"Feature","properties":{"id":"EB-05-zone","direction":"eastbound","rank":5},"geometry":{"type":"LineString","coordinates":[[-118.2946127514071,34.018288662721815],[-118.29488373667665,34.01828896116374]]}},{"type":"Feature","properties":{"direction":"eastbound","between":"Expo Park / USC \u2192 Expo / Vermont","cross_street":"Exposition / Watt","nearest_station":"Expo / Vermont","dist_to_station_m":254,"length_m":25,"rides_rough":2,"rides_covering":2,"severity":2.2,"start_m":15550,"end_m":15575,"peak_bin":622,"peak_start_m":15550,"peak_end_m":15575,"google_maps":"https://www.google.com/maps?q=34.018260,-118.288787","status":"Worth inspecting","location_precision":"Approximate corridor location; physical track unverified","pass_evidence":[{"pass_id":"EB-1","covered":false,"score":null,"elevated":false,"threshold":1.728,"recordings":[]},{"pass_id":"EB-2","covered":true,"score":1.605,"elevated":true,"threshold":1.532,"recordings":["R04"]},{"pass_id":"EB-3","covered":true,"score":2.709,"elevated":true,"threshold":1.829,"recordings":["R01","R11"]}],"evidence_scope":"Counts and severity refer to the selected peak 25 m slice; each adjacent included slice independently meets the candidate rule.","id":"EB-06","rank":6,"label":"EB-06 \u00b7 2.2\u00d7"},"geometry":{"type":"Point","coordinates":[-118.28878681877336,34.01826019737338]}},{"type":"Feature","properties":{"id":"EB-06-zone","direction":"eastbound","rank":6},"geometry":{"type":"LineString","coordinates":[[-118.28865132642898,34.018259937001616],[-118.288668,34.01826],[-118.28892231125661,34.018260422443944]]}},{"type":"Feature","properties":{"direction":"eastbound","between":"Expo / La Brea / Ethel Bradley \u2192 La Cienega / Jefferson","cross_street":"Jefferson / Clyde","nearest_station":"La Cienega / Jefferson","dist_to_station_m":372,"length_m":25,"rides_rough":2,"rides_covering":2,"severity":2.2,"start_m":22950,"end_m":22975,"peak_bin":918,"peak_start_m":22950,"peak_end_m":22975,"google_maps":"https://www.google.com/maps?q=34.026089,-118.368092","status":"Worth inspecting","location_precision":"Approximate corridor location; physical track unverified","pass_evidence":[{"pass_id":"EB-1","covered":true,"score":2.283,"elevated":true,"threshold":1.728,"recordings":["R05","R07"]},{"pass_id":"EB-2","covered":false,"score":null,"elevated":false,"threshold":1.532,"recordings":[]},{"pass_id":"EB-3","covered":true,"score":2.2,"elevated":true,"threshold":1.829,"recordings":["R11"]}],"evidence_scope":"Counts and severity refer to the selected peak 25 m slice; each adjacent included slice independently meets the candidate rule.","id":"EB-07","rank":7,"label":"EB-07 \u00b7 2.2\u00d7"},"geometry":{"type":"Point","coordinates":[-118.368092343296,34.026088569966475]}},{"type":"Feature","properties":{"id":"EB-07-zone","direction":"eastbound","rank":7},"geometry":{"type":"LineString","coordinates":[[-118.36795736390911,34.02607877268956],[-118.368044,34.026085],[-118.368227304861,34.026098536358965]]}},{"type":"Feature","properties":{"direction":"eastbound","between":"Expo Park / USC \u2192 Expo / Vermont","cross_street":"Exposition / Watt","nearest_station":"Expo Park / USC","dist_to_station_m":232,"length_m":25,"rides_rough":2,"rides_covering":2,"severity":2.1,"start_m":15500,"end_m":15525,"peak_bin":620,"peak_start_m":15500,"peak_end_m":15525,"google_maps":"https://www.google.com/maps?q=34.018258,-118.288245","status":"Worth inspecting","location_precision":"Approximate corridor location; physical track unverified","pass_evidence":[{"pass_id":"EB-1","covered":false,"score":null,"elevated":false,"threshold":1.728,"recordings":[]},{"pass_id":"EB-2","covered":true,"score":1.605,"elevated":true,"threshold":1.532,"recordings":["R04"]},{"pass_id":"EB-3","covered":true,"score":2.505,"elevated":true,"threshold":1.829,"recordings":["R01","R11"]}],"evidence_scope":"Counts and severity refer to the selected peak 25 m slice; each adjacent included slice independently meets the candidate rule.","id":"EB-08","rank":8,"label":"EB-08 \u00b7 2.1\u00d7"},"geometry":{"type":"Point","coordinates":[-118.28824485236443,34.01825840120541]}},{"type":"Feature","properties":{"id":"EB-08-zone","direction":"eastbound","rank":8},"geometry":{"type":"LineString","coordinates":[[-118.28810936100957,34.018257889273336],[-118.28838034371927,34.01825891313748]]}},{"type":"Feature","properties":{"direction":"eastbound","between":"Expo / Western \u2192 Expo / Crenshaw E-Line","cross_street":null,"nearest_station":"Expo / Western","dist_to_station_m":468,"length_m":25,"rides_rough":2,"rides_covering":2,"severity":2.1,"start_m":17875,"end_m":17900,"peak_bin":715,"peak_start_m":17875,"peak_end_m":17900,"google_maps":"https://www.google.com/maps?q=34.018405,-118.313987","status":"Worth inspecting","location_precision":"Approximate corridor location; physical track unverified","pass_evidence":[{"pass_id":"EB-1","covered":true,"score":2.342,"elevated":true,"threshold":1.728,"recordings":["R05","R07"]},{"pass_id":"EB-2","covered":false,"score":null,"elevated":false,"threshold":1.532,"recordings":[]},{"pass_id":"EB-3","covered":true,"score":1.87,"elevated":true,"threshold":1.829,"recordings":["R01"]}],"evidence_scope":"Counts and severity refer to the selected peak 25 m slice; each adjacent included slice independently meets the candidate rule.","id":"EB-09","rank":9,"label":"EB-09 \u00b7 2.1\u00d7"},"geometry":{"type":"Point","coordinates":[-118.31398704054831,34.01840541264398]}},{"type":"Feature","properties":{"id":"EB-09-zone","direction":"eastbound","rank":9},"geometry":{"type":"LineString","coordinates":[[-118.31385158245644,34.01840286442245],[-118.31412249864017,34.01840796086551]]}},{"type":"Feature","properties":{"direction":"eastbound","between":"La Cienega / Jefferson \u2192 Culver City","cross_street":null,"nearest_station":"Culver City","dist_to_station_m":738,"length_m":25,"rides_rough":2,"rides_covering":3,"severity":1.9,"start_m":24150,"end_m":24175,"peak_bin":966,"peak_start_m":24150,"peak_end_m":24175,"google_maps":"https://www.google.com/maps?q=34.027235,-118.381025","status":"Worth inspecting","location_precision":"Approximate corridor location; physical track unverified","pass_evidence":[{"pass_id":"EB-1","covered":true,"score":1.898,"elevated":true,"threshold":1.728,"recordings":["R05","R07"]},{"pass_id":"EB-2","covered":true,"score":1.528,"elevated":false,"threshold":1.532,"recordings":["R04"]},{"pass_id":"EB-3","covered":true,"score":1.996,"elevated":true,"threshold":1.829,"recordings":["R01","R11"]}],"evidence_scope":"Counts and severity refer to the selected peak 25 m slice; each adjacent included slice independently meets the candidate rule.","id":"EB-10","rank":10,"label":"EB-10 \u00b7 1.9\u00d7"},"geometry":{"type":"Point","coordinates":[-118.3810254797647,34.02723485099975]}},{"type":"Feature","properties":{"id":"EB-10-zone","direction":"eastbound","rank":10},"geometry":{"type":"LineString","coordinates":[[-118.38089082313004,34.02722235408905],[-118.38116013639937,34.027247347910446]]}},{"type":"Feature","properties":{"direction":"eastbound","between":"Expo / Vermont \u2192 Expo / Western","cross_street":"Exposition / Halldale","nearest_station":"Expo / Western","dist_to_station_m":582,"length_m":25,"rides_rough":2,"rides_covering":3,"severity":1.8,"start_m":16825,"end_m":16850,"peak_bin":673,"peak_start_m":16825,"peak_end_m":16850,"google_maps":"https://www.google.com/maps?q=34.018304,-118.302607","status":"Worth inspecting","location_precision":"Approximate corridor location; physical track unverified","pass_evidence":[{"pass_id":"EB-1","covered":true,"score":2.22,"elevated":true,"threshold":1.728,"recordings":["R05","R07"]},{"pass_id":"EB-2","covered":true,"score":1.77,"elevated":true,"threshold":1.532,"recordings":["R04"]},{"pass_id":"EB-3","covered":true,"score":0.856,"elevated":false,"threshold":1.829,"recordings":["R01"]}],"evidence_scope":"Counts and severity refer to the selected peak 25 m slice; each adjacent included slice independently meets the candidate rule.","id":"EB-11","rank":11,"label":"EB-11 \u00b7 1.8\u00d7"},"geometry":{"type":"Point","coordinates":[-118.30260675423207,34.018303911779796]}},{"type":"Feature","properties":{"id":"EB-11-zone","direction":"eastbound","rank":11},"geometry":{"type":"LineString","coordinates":[[-118.30247126272377,34.01830342874411],[-118.30274224574038,34.01830439481547]]}},{"type":"Feature","properties":{"direction":"eastbound","between":"La Cienega / Jefferson \u2192 Culver City","cross_street":null,"nearest_station":"La Cienega / Jefferson","dist_to_station_m":652,"length_m":25,"rides_rough":2,"rides_covering":3,"severity":1.7,"start_m":23975,"end_m":24000,"peak_bin":959,"peak_start_m":23975,"peak_end_m":24000,"google_maps":"https://www.google.com/maps?q=34.027066,-118.379140","status":"Worth inspecting","location_precision":"Approximate corridor location; physical track unverified","pass_evidence":[{"pass_id":"EB-1","covered":true,"score":1.852,"elevated":true,"threshold":1.728,"recordings":["R05","R07"]},{"pass_id":"EB-2","covered":true,"score":1.538,"elevated":true,"threshold":1.532,"recordings":["R04"]},{"pass_id":"EB-3","covered":true,"score":1.665,"elevated":false,"threshold":1.829,"recordings":["R01","R11"]}],"evidence_scope":"Counts and severity refer to the selected peak 25 m slice; each adjacent included slice independently meets the candidate rule.","id":"EB-12","rank":12,"label":"EB-12 \u00b7 1.7\u00d7"},"geometry":{"type":"Point","coordinates":[-118.37913960092904,34.027065912285764]}},{"type":"Feature","properties":{"id":"EB-12-zone","direction":"eastbound","rank":12},"geometry":{"type":"LineString","coordinates":[[-118.37900503127621,34.02705278353914],[-118.379161,34.027068],[-118.3792745263991,34.027076132263545]]}}]}