{"type": "FeatureCollection", "features": [{"type": "Feature", "properties": {"name": "Atlantic", "chainage_m": 129, "in_scanned_segment": false}, "geometry": {"type": "Point", "coordinates": [-118.154469, 34.033398]}}, {"type": "Feature", "properties": {"name": "East LA Civic Center", "chainage_m": 751, "in_scanned_segment": false}, "geometry": {"type": "Point", "coordinates": [-118.161206, 34.033364]}}, {"type": "Feature", "properties": {"name": "Maravilla", "chainage_m": 1391, "in_scanned_segment": false}, "geometry": {"type": "Point", "coordinates": [-118.16814, 34.033319]}}, {"type": "Feature", "properties": {"name": "Indiana", "chainage_m": 3700, "in_scanned_segment": false}, "geometry": {"type": "Point", "coordinates": [-118.192182, 34.0343]}}, {"type": "Feature", "properties": {"name": "Soto", "chainage_m": 5731, "in_scanned_segment": false}, "geometry": {"type": "Point", "coordinates": [-118.210061, 34.043747]}}, {"type": "Feature", "properties": {"name": "Mariachi Plaza / Boyle Heights", "chainage_m": 6714, "in_scanned_segment": false}, "geometry": {"type": "Point", "coordinates": [-118.219648, 34.047215]}}, {"type": "Feature", "properties": {"name": "Pico / Aliso", "chainage_m": 7296, "in_scanned_segment": false}, "geometry": {"type": "Point", "coordinates": [-118.22594, 34.047634]}}, {"type": "Feature", "properties": {"name": "Little Tokyo / Arts District", "chainage_m": 8493, "in_scanned_segment": false}, "geometry": {"type": "Point", "coordinates": [-118.2387567, 34.04884524]}}, {"type": "Feature", "properties": {"name": "Historic Broadway", "chainage_m": 9314, "in_scanned_segment": false}, "geometry": {"type": "Point", "coordinates": [-118.2463211, 34.05215607]}}, {"type": "Feature", "properties": {"name": "Grand Ave Arts / Bunker Hill", "chainage_m": 9893, "in_scanned_segment": false}, "geometry": {"type": "Point", "coordinates": [-118.2515307, 34.05472448]}}, {"type": "Feature", "properties": {"name": "7th Street / Metro Center - Metro A & E Lines", "chainage_m": 10887, "in_scanned_segment": false}, "geometry": {"type": "Point", "coordinates": [-118.258822, 34.04861]}}, {"type": "Feature", "properties": {"name": "Pico", "chainage_m": 11990, "in_scanned_segment": false}, "geometry": {"type": "Point", "coordinates": [-118.266118, 34.040735]}}, {"type": "Feature", "properties": {"name": "LATTC / Ortho Institute", "chainage_m": 13455, "in_scanned_segment": false}, "geometry": {"type": "Point", "coordinates": [-118.273603, 34.029112]}}, {"type": "Feature", "properties": {"name": "Jefferson / USC", "chainage_m": 14340, "in_scanned_segment": false}, "geometry": {"type": "Point", "coordinates": [-118.278118, 34.022123]}}, {"type": "Feature", "properties": {"name": "Expo Park / USC", "chainage_m": 15281, "in_scanned_segment": true}, "geometry": {"type": "Point", "coordinates": [-118.285734, 34.018227]}}, {"type": "Feature", "properties": {"name": "Expo / Vermont", "chainage_m": 15816, "in_scanned_segment": true}, "geometry": {"type": "Point", "coordinates": [-118.29154, 34.018245]}}, {"type": "Feature", "properties": {"name": "Expo / Western", "chainage_m": 17419, "in_scanned_segment": true}, "geometry": {"type": "Point", "coordinates": [-118.30891, 34.018331]}}, {"type": "Feature", "properties": {"name": "Expo / Crenshaw E-Line", "chainage_m": 19890, "in_scanned_segment": true}, "geometry": {"type": "Point", "coordinates": [-118.335078, 34.022526]}}, {"type": "Feature", "properties": {"name": "Farmdale", "chainage_m": 20920, "in_scanned_segment": true}, "geometry": {"type": "Point", "coordinates": [-118.346095, 34.023981]}}, {"type": "Feature", "properties": {"name": "Expo / La Brea / Ethel Bradley", "chainage_m": 21761, "in_scanned_segment": true}, "geometry": {"type": "Point", "coordinates": [-118.355159, 34.024803]}}, {"type": "Feature", "properties": {"name": "La Cienega / Jefferson", "chainage_m": 23335, "in_scanned_segment": true}, "geometry": {"type": "Point", "coordinates": [-118.37212, 34.026355]}}, {"type": "Feature", "properties": {"name": "Culver City", "chainage_m": 24901, "in_scanned_segment": true}, "geometry": {"type": "Point", "coordinates": [-118.388986, 34.027896]}}, {"type": "Feature", "properties": {"name": "Palms", "chainage_m": 26318, "in_scanned_segment": false}, "geometry": {"type": "Point", "coordinates": [-118.404255, 34.029323]}}, {"type": "Feature", "properties": {"name": "Westwood / Rancho Park", "chainage_m": 28539, "in_scanned_segment": false}, "geometry": {"type": "Point", "coordinates": [-118.42458, 34.03682]}}, {"type": "Feature", "properties": {"name": "Expo / Sepulveda", "chainage_m": 29443, "in_scanned_segment": false}, "geometry": {"type": "Point", "coordinates": [-118.43423, 34.03541]}}, {"type": "Feature", "properties": {"name": "Expo / Bundy", "chainage_m": 31214, "in_scanned_segment": false}, "geometry": {"type": "Point", "coordinates": [-118.452896, 34.031705]}}, {"type": "Feature", "properties": {"name": "26th Street / Bergamot", "chainage_m": 32769, "in_scanned_segment": false}, "geometry": {"type": "Point", "coordinates": [-118.46912, 34.027995]}}, {"type": "Feature", "properties": {"name": "17th Street / SMC", "chainage_m": 33948, "in_scanned_segment": false}, "geometry": {"type": "Point", "coordinates": [-118.48037, 34.02316]}}, {"type": "Feature", "properties": {"name": "Downtown Santa Monica", "chainage_m": 35388, "in_scanned_segment": false}, "geometry": {"type": "Point", "coordinates": [-118.49138, 34.01401]}}]}