{"type": "FeatureCollection", "features": [{"type": "Feature", "properties": {"rank": 1, "between": "Expo / Vermont \u2192 Expo / Western", "cross_street": "Exposition / Budlong", "nearest_station": "Expo / Vermont", "dist_to_station_m": 409, "length_m": 150, "rides_rough": 5, "rides_covering": 5, "both_directions": true, "severity": 3.4, "google_maps": "https://www.google.com/maps?q=34.018292,-118.295968", "start_m": 16100, "end_m": 16250, "id": "H-01", "label": "#1 \u00b7 3.4\u00d7 \u00b7 5/5 rides", "status": "Needs inspection"}, "geometry": {"type": "Point", "coordinates": [-118.295968, 34.018292]}}, {"type": "Feature", "properties": {"id": "H-01-zone", "rank": 1}, "geometry": {"type": "LineString", "coordinates": [[-118.294613, 34.018289], [-118.294919, 34.018289], [-118.295667, 34.018292], [-118.296239, 34.018292]]}}, {"type": "Feature", "properties": {"rank": 2, "between": "Expo / Vermont \u2192 Expo / Western", "cross_street": "Exposition / Harvard", "nearest_station": "Expo / Western", "dist_to_station_m": 207, "length_m": 25, "rides_rough": 3, "rides_covering": 3, "both_directions": true, "severity": 2.9, "google_maps": "https://www.google.com/maps?q=34.018324,-118.306671", "start_m": 17200, "end_m": 17225, "id": "H-02", "label": "#2 \u00b7 2.9\u00d7 \u00b7 3/3 rides", "status": "Needs inspection"}, "geometry": {"type": "Point", "coordinates": [-118.306671, 34.018324]}}, {"type": "Feature", "properties": {"id": "H-02-zone", "rank": 2}, "geometry": {"type": "LineString", "coordinates": [[-118.306536, 34.018323], [-118.306807, 34.018325]]}}, {"type": "Feature", "properties": {"rank": 3, "between": "Expo / Western \u2192 Expo / Crenshaw E-Line", "cross_street": null, "nearest_station": "Expo / Western", "dist_to_station_m": 468, "length_m": 25, "rides_rough": 4, "rides_covering": 4, "both_directions": true, "severity": 2.2, "google_maps": "https://www.google.com/maps?q=34.018405,-118.313987", "start_m": 17875, "end_m": 17900, "id": "H-03", "label": "#3 \u00b7 2.2\u00d7 \u00b7 4/4 rides", "status": "Needs inspection"}, "geometry": {"type": "Point", "coordinates": [-118.313987, 34.018405]}}, {"type": "Feature", "properties": {"id": "H-03-zone", "rank": 3}, "geometry": {"type": "LineString", "coordinates": [[-118.313852, 34.018403], [-118.314122, 34.018408]]}}, {"type": "Feature", "properties": {"rank": 4, "between": "La Cienega / Jefferson \u2192 Culver City", "cross_street": null, "nearest_station": "La Cienega / Jefferson", "dist_to_station_m": 752, "length_m": 100, "rides_rough": 5, "rides_covering": 5, "both_directions": true, "severity": 1.8, "google_maps": "https://www.google.com/maps?q=34.027161,-118.380217", "start_m": 24075, "end_m": 24175, "id": "H-04", "label": "#4 \u00b7 1.8\u00d7 \u00b7 5/5 rides", "status": "Needs inspection"}, "geometry": {"type": "Point", "coordinates": [-118.380217, 34.027161]}}, {"type": "Feature", "properties": {"id": "H-04-zone", "rank": 4}, "geometry": {"type": "LineString", "coordinates": [[-118.380083, 34.027148], [-118.380088, 34.027149], [-118.380456, 34.027182], [-118.38116, 34.027247]]}}, {"type": "Feature", "properties": {"rank": 5, "between": "Expo / La Brea / Ethel Bradley \u2192 La Cienega / Jefferson", "cross_street": "La Cienega Station Terminal", "nearest_station": "La Cienega / Jefferson", "dist_to_station_m": 123, "length_m": 25, "rides_rough": 4, "rides_covering": 5, "both_directions": true, "severity": 2.0, "google_maps": "https://www.google.com/maps?q=34.026293,-118.370791", "start_m": 23200, "end_m": 23225, "id": "H-05", "label": "#5 \u00b7 2.0\u00d7 \u00b7 4/5 rides", "status": "Needs inspection"}, "geometry": {"type": "Point", "coordinates": [-118.370791, 34.026293]}}, {"type": "Feature", "properties": {"id": "H-05-zone", "rank": 5}, "geometry": {"type": "LineString", "coordinates": [[-118.370656, 34.026284], [-118.370926, 34.026303]]}}, {"type": "Feature", "properties": {"rank": 6, "between": "La Cienega / Jefferson \u2192 Culver City", "cross_street": null, "nearest_station": "Culver City", "dist_to_station_m": 476, "length_m": 50, "rides_rough": 4, "rides_covering": 5, "both_directions": true, "severity": 2.0, "google_maps": "https://www.google.com/maps?q=34.027539,-118.383847", "start_m": 24400, "end_m": 24450, "id": "H-06", "label": "#6 \u00b7 2.0\u00d7 \u00b7 4/5 rides", "status": "Needs inspection"}, "geometry": {"type": "Point", "coordinates": [-118.383847, 34.027539]}}, {"type": "Feature", "properties": {"id": "H-06-zone", "rank": 6}, "geometry": {"type": "LineString", "coordinates": [[-118.383579, 34.027508], [-118.383939, 34.027549], [-118.384117, 34.027562]]}}, {"type": "Feature", "properties": {"rank": 7, "between": "Expo Park / USC \u2192 Expo / Vermont", "cross_street": "Exposition / Watt", "nearest_station": "Expo Park / USC", "dist_to_station_m": 244, "length_m": 50, "rides_rough": 3, "rides_covering": 4, "both_directions": true, "severity": 2.0, "google_maps": "https://www.google.com/maps?q=34.018259,-118.28838", "start_m": 15500, "end_m": 15550, "id": "H-07", "label": "#7 \u00b7 2.0\u00d7 \u00b7 3/4 rides", "status": "Needs inspection"}, "geometry": {"type": "Point", "coordinates": [-118.28838, 34.018259]}}, {"type": "Feature", "properties": {"id": "H-07-zone", "rank": 7}, "geometry": {"type": "LineString", "coordinates": [[-118.288109, 34.018258], [-118.288651, 34.01826]]}}, {"type": "Feature", "properties": {"rank": 8, "between": "Expo / Vermont \u2192 Expo / Western", "cross_street": "Exposition / Halldale", "nearest_station": "Expo / Western", "dist_to_station_m": 569, "length_m": 50, "rides_rough": 3, "rides_covering": 5, "both_directions": true, "severity": 2.3, "google_maps": "https://www.google.com/maps?q=34.018304,-118.302742", "start_m": 16825, "end_m": 16875, "id": "H-08", "label": "#8 \u00b7 2.3\u00d7 \u00b7 3/5 rides", "status": "Needs inspection"}, "geometry": {"type": "Point", "coordinates": [-118.302742, 34.018304]}}, {"type": "Feature", "properties": {"id": "H-08-zone", "rank": 8}, "geometry": {"type": "LineString", "coordinates": [[-118.302471, 34.018303], [-118.302912, 34.018305], [-118.303013, 34.018305]]}}, {"type": "Feature", "properties": {"rank": 9, "between": "La Cienega / Jefferson \u2192 Culver City", "cross_street": null, "nearest_station": "La Cienega / Jefferson", "dist_to_station_m": 477, "length_m": 25, "rides_rough": 4, "rides_covering": 5, "both_directions": true, "severity": 1.7, "google_maps": "https://www.google.com/maps?q=34.026875,-118.377257", "start_m": 23800, "end_m": 23825, "id": "H-09", "label": "#9 \u00b7 1.7\u00d7 \u00b7 4/5 rides", "status": "Needs inspection"}, "geometry": {"type": "Point", "coordinates": [-118.377257, 34.026875]}}, {"type": "Feature", "properties": {"id": "H-09-zone", "rank": 9}, "geometry": {"type": "LineString", "coordinates": [[-118.377122, 34.026861], [-118.377391, 34.026889]]}}, {"type": "Feature", "properties": {"rank": 10, "between": "Expo / La Brea / Ethel Bradley \u2192 La Cienega / Jefferson", "cross_street": "Jefferson / Hauser", "nearest_station": "La Cienega / Jefferson", "dist_to_station_m": 498, "length_m": 25, "rides_rough": 3, "rides_covering": 4, "both_directions": true, "severity": 1.8, "google_maps": "https://www.google.com/maps?q=34.025985,-118.366743", "start_m": 22825, "end_m": 22850, "id": "H-10", "label": "#10 \u00b7 1.8\u00d7 \u00b7 3/4 rides", "status": "Needs inspection"}, "geometry": {"type": "Point", "coordinates": [-118.366743, 34.025985]}}, {"type": "Feature", "properties": {"id": "H-10-zone", "rank": 10}, "geometry": {"type": "LineString", "coordinates": [[-118.366608, 34.025974], [-118.366654, 34.025978], [-118.366878, 34.025997]]}}, {"type": "Feature", "properties": {"rank": 11, "between": "Expo / La Brea / Ethel Bradley \u2192 La Cienega / Jefferson", "cross_street": "Jefferson / Cochran", "nearest_station": "Expo / La Brea / Ethel Bradley", "dist_to_station_m": 702, "length_m": 25, "rides_rough": 3, "rides_covering": 5, "both_directions": true, "severity": 1.8, "google_maps": "https://www.google.com/maps?q=34.025544,-118.362714", "start_m": 22450, "end_m": 22475, "id": "H-11", "label": "#11 \u00b7 1.8\u00d7 \u00b7 3/5 rides", "status": "Needs inspection"}, "geometry": {"type": "Point", "coordinates": [-118.362714, 34.025544]}}, {"type": "Feature", "properties": {"id": "H-11-zone", "rank": 11}, "geometry": {"type": "LineString", "coordinates": [[-118.362579, 34.025532], [-118.362848, 34.025557]]}}]}