{"type": "FeatureCollection", "features": [{"type": "Feature", "properties": {"id": "H-01", "rank": 1, "between": "<bound method Series.of rank                                                                        1\nzone                                                                        2\nstart_m                                                                 16125\nend_m                                                                   16250\nlength_m                                                                  125\npeak_bin                                                                  649\npeak_m                                                                16237.5\nseverity                                                             3.132471\nrecordings_covering_peak                                                   10\nhot_fraction_peak                                                         1.0\nrides_rough                                                                 5\nrides_covering                                                              5\nrough_ride_ids                                                      1;2;3;4;5\ncovering_ride_ids                                                   1;2;3;4;5\nboth_directions                                                          True\nnearest_station                                                Expo / Vermont\ndist_to_station_m                                                       421.5\nbetween                               between Expo / Vermont \u2192 Expo / Western\ncross_street                                             Exposition / Budlong\nstation_zone                                                            False\nlat                                                                 34.018292\nlon                                                               -118.296103\ngoogle_maps                 https://www.google.com/maps?q=34.0182920,-118....\nrepeat_fraction                                                           1.0\nrank_score                                                           3.915589\nName: 0, dtype: object>", "cross_street": "Exposition / Budlong", "nearest_station": "Expo / Vermont", "dist_to_station_m": 422, "length_m": 125, "rides_rough": 5, "rides_covering": 5, "both_directions": true, "severity": 3.1, "google_maps": "https://www.google.com/maps?q=34.0182920,-118.2961032", "start_m": 16125, "end_m": 16250, "label": "#1 \u00b7 3.1\u00d7 \u00b7 5/5 rides", "status": "Needs inspection", "source": "R pipeline (trackscan_R.R)"}, "geometry": {"type": "Point", "coordinates": [-118.296103, 34.018292]}}, {"type": "Feature", "properties": {"id": "H-01-zone", "rank": 1}, "geometry": {"type": "LineString", "coordinates": [[-118.294884, 34.018289], [-118.294919, 34.018289], [-118.295667, 34.018292], [-118.296239, 34.018292]]}}, {"type": "Feature", "properties": {"id": "H-02", "rank": 2, "between": "<bound method Series.of rank                                                                        2\nzone                                                                        5\nstart_m                                                                 17200\nend_m                                                                   17225\nlength_m                                                                   25\npeak_bin                                                                  688\npeak_m                                                                17212.5\nseverity                                                             2.990052\nrecordings_covering_peak                                                    6\nhot_fraction_peak                                                         1.0\nrides_rough                                                                 3\nrides_covering                                                              3\nrough_ride_ids                                                          1;2;4\ncovering_ride_ids                                                       1;2;4\nboth_directions                                                          True\nnearest_station                                                Expo / Western\ndist_to_station_m                                                       206.5\nbetween                               between Expo / Vermont \u2192 Expo / Western\ncross_street                                             Exposition / Harvard\nstation_zone                                                            False\nlat                                                                 34.018324\nlon                                                               -118.306671\ngoogle_maps                 https://www.google.com/maps?q=34.0183239,-118....\nrepeat_fraction                                                           1.0\nrank_score                                                           3.737566\nName: 1, dtype: object>", "cross_street": "Exposition / Harvard", "nearest_station": "Expo / Western", "dist_to_station_m": 206, "length_m": 25, "rides_rough": 3, "rides_covering": 3, "both_directions": true, "severity": 3.0, "google_maps": "https://www.google.com/maps?q=34.0183239,-118.3066714", "start_m": 17200, "end_m": 17225, "label": "#2 \u00b7 3.0\u00d7 \u00b7 3/3 rides", "status": "Needs inspection", "source": "R pipeline (trackscan_R.R)"}, "geometry": {"type": "Point", "coordinates": [-118.306671, 34.018324]}}, {"type": "Feature", "properties": {"id": "H-02-zone", "rank": 2}, "geometry": {"type": "LineString", "coordinates": [[-118.306536, 34.018323], [-118.306807, 34.018325]]}}, {"type": "Feature", "properties": {"id": "H-03", "rank": 3, "between": "<bound method Series.of rank                                                                        3\nzone                                                                        6\nstart_m                                                                 17875\nend_m                                                                   17900\nlength_m                                                                   25\npeak_bin                                                                  715\npeak_m                                                                17887.5\nseverity                                                             2.291853\nrecordings_covering_peak                                                    6\nhot_fraction_peak                                                         1.0\nrides_rough                                                                 4\nrides_covering                                                              4\nrough_ride_ids                                                        1;2;4;5\ncovering_ride_ids                                                     1;2;4;5\nboth_directions                                                          True\nnearest_station                                                Expo / Western\ndist_to_station_m                                                       468.5\nbetween                       between Expo / Western \u2192 Expo / Crenshaw E-Line\ncross_street                                                              NaN\nstation_zone                                                            False\nlat                                                                 34.018405\nlon                                                               -118.313987\ngoogle_maps                 https://www.google.com/maps?q=34.0184054,-118....\nrepeat_fraction                                                           1.0\nrank_score                                                           2.864817\nName: 2, dtype: object>", "cross_street": null, "nearest_station": "Expo / Western", "dist_to_station_m": 468, "length_m": 25, "rides_rough": 4, "rides_covering": 4, "both_directions": true, "severity": 2.3, "google_maps": "https://www.google.com/maps?q=34.0184054,-118.3139870", "start_m": 17875, "end_m": 17900, "label": "#3 \u00b7 2.3\u00d7 \u00b7 4/4 rides", "status": "Needs inspection", "source": "R pipeline (trackscan_R.R)"}, "geometry": {"type": "Point", "coordinates": [-118.313987, 34.018405]}}, {"type": "Feature", "properties": {"id": "H-03-zone", "rank": 3}, "geometry": {"type": "LineString", "coordinates": [[-118.313852, 34.018403], [-118.314122, 34.018408]]}}, {"type": "Feature", "properties": {"id": "H-04", "rank": 4, "between": "<bound method Series.of rank                                                                        4\nzone                                                                        8\nstart_m                                                                 22750\nend_m                                                                   22875\nlength_m                                                                  125\npeak_bin                                                                  914\npeak_m                                                                22862.5\nseverity                                                             2.381628\nrecordings_covering_peak                                                    8\nhot_fraction_peak                                                         0.5\nrides_rough                                                                 4\nrides_covering                                                              5\nrough_ride_ids                                                        1;2;4;5\ncovering_ride_ids                                                   1;2;3;4;5\nboth_directions                                                          True\nnearest_station                                        La Cienega / Jefferson\ndist_to_station_m                                                       472.5\nbetween                     between Expo / La Brea / Ethel Bradley \u2192 La Ci...\ncross_street                                               Jefferson / Hauser\nstation_zone                                                            False\nlat                                                                 34.026008\nlon                                                               -118.367013\ngoogle_maps                 https://www.google.com/maps?q=34.0260080,-118....\nrepeat_fraction                                                           0.8\nrank_score                                                           2.381628\nName: 3, dtype: object>", "cross_street": "Jefferson / Hauser", "nearest_station": "La Cienega / Jefferson", "dist_to_station_m": 472, "length_m": 125, "rides_rough": 4, "rides_covering": 5, "both_directions": true, "severity": 2.4, "google_maps": "https://www.google.com/maps?q=34.0260080,-118.3670128", "start_m": 22750, "end_m": 22875, "label": "#4 \u00b7 2.4\u00d7 \u00b7 4/5 rides", "status": "Needs inspection", "source": "R pipeline (trackscan_R.R)"}, "geometry": {"type": "Point", "coordinates": [-118.367013, 34.026008]}}, {"type": "Feature", "properties": {"id": "H-04-zone", "rank": 4}, "geometry": {"type": "LineString", "coordinates": [[-118.365801, 34.025898], [-118.366016, 34.02592], [-118.366498, 34.025964], [-118.366654, 34.025978], [-118.367148, 34.026019]]}}, {"type": "Feature", "properties": {"id": "H-05", "rank": 5, "between": "<bound method Series.of rank                                                                        5\nzone                                                                        9\nstart_m                                                                 24075\nend_m                                                                   24100\nlength_m                                                                   25\npeak_bin                                                                  963\npeak_m                                                                24087.5\nseverity                                                             1.781374\nrecordings_covering_peak                                                   10\nhot_fraction_peak                                                         0.6\nrides_rough                                                                 4\nrides_covering                                                              5\nrough_ride_ids                                                        1;2;4;5\ncovering_ride_ids                                                   1;2;3;4;5\nboth_directions                                                          True\nnearest_station                                        La Cienega / Jefferson\ndist_to_station_m                                                       752.5\nbetween                          between La Cienega / Jefferson \u2192 Culver City\ncross_street                                                              NaN\nstation_zone                                                            False\nlat                                                                 34.027161\nlon                                                               -118.380217\ngoogle_maps                 https://www.google.com/maps?q=34.0271606,-118....\nrepeat_fraction                                                           0.8\nrank_score                                                           1.781374\nName: 4, dtype: object>", "cross_street": null, "nearest_station": "La Cienega / Jefferson", "dist_to_station_m": 752, "length_m": 25, "rides_rough": 4, "rides_covering": 5, "both_directions": true, "severity": 1.8, "google_maps": "https://www.google.com/maps?q=34.0271606,-118.3802174", "start_m": 24075, "end_m": 24100, "label": "#5 \u00b7 1.8\u00d7 \u00b7 4/5 rides", "status": "Needs inspection", "source": "R pipeline (trackscan_R.R)"}, "geometry": {"type": "Point", "coordinates": [-118.380217, 34.027161]}}, {"type": "Feature", "properties": {"id": "H-05-zone", "rank": 5}, "geometry": {"type": "LineString", "coordinates": [[-118.380083, 34.027148], [-118.380088, 34.027149], [-118.380352, 34.027173]]}}, {"type": "Feature", "properties": {"id": "H-06", "rank": 6, "between": "<bound method Series.of rank                                                                        6\nzone                                                                        4\nstart_m                                                                 16825\nend_m                                                                   16875\nlength_m                                                                   50\npeak_bin                                                                  673\npeak_m                                                                16837.5\nseverity                                                             2.252349\nrecordings_covering_peak                                                    8\nhot_fraction_peak                                                       0.625\nrides_rough                                                                 3\nrides_covering                                                              5\nrough_ride_ids                                                          1;2;3\ncovering_ride_ids                                                   1;2;3;4;5\nboth_directions                                                          True\nnearest_station                                                Expo / Western\ndist_to_station_m                                                       581.5\nbetween                               between Expo / Vermont \u2192 Expo / Western\ncross_street                                            Exposition / Halldale\nstation_zone                                                            False\nlat                                                                 34.018304\nlon                                                               -118.302607\ngoogle_maps                 https://www.google.com/maps?q=34.0183039,-118....\nrepeat_fraction                                                           0.6\nrank_score                                                           1.689262\nName: 5, dtype: object>", "cross_street": "Exposition / Halldale", "nearest_station": "Expo / Western", "dist_to_station_m": 582, "length_m": 50, "rides_rough": 3, "rides_covering": 5, "both_directions": true, "severity": 2.3, "google_maps": "https://www.google.com/maps?q=34.0183039,-118.3026068", "start_m": 16825, "end_m": 16875, "label": "#6 \u00b7 2.3\u00d7 \u00b7 3/5 rides", "status": "Needs inspection", "source": "R pipeline (trackscan_R.R)"}, "geometry": {"type": "Point", "coordinates": [-118.302607, 34.018304]}}, {"type": "Feature", "properties": {"id": "H-06-zone", "rank": 6}, "geometry": {"type": "LineString", "coordinates": [[-118.302471, 34.018303], [-118.302912, 34.018305], [-118.303013, 34.018305]]}}, {"type": "Feature", "properties": {"id": "H-07", "rank": 7, "between": "<bound method Series.of rank                                                                        7\nzone                                                                       10\nstart_m                                                                 24400\nend_m                                                                   24450\nlength_m                                                                   50\npeak_bin                                                                  977\npeak_m                                                                24437.5\nseverity                                                              2.00684\nrecordings_covering_peak                                                   10\nhot_fraction_peak                                                         0.7\nrides_rough                                                                 3\nrides_covering                                                              5\nrough_ride_ids                                                          1;2;4\ncovering_ride_ids                                                   1;2;3;4;5\nboth_directions                                                          True\nnearest_station                                                   Culver City\ndist_to_station_m                                                       463.5\nbetween                          between La Cienega / Jefferson \u2192 Culver City\ncross_street                                                              NaN\nstation_zone                                                            False\nlat                                                                 34.027552\nlon                                                               -118.383982\ngoogle_maps                 https://www.google.com/maps?q=34.0275521,-118....\nrepeat_fraction                                                           0.6\nrank_score                                                            1.50513\nName: 6, dtype: object>", "cross_street": null, "nearest_station": "Culver City", "dist_to_station_m": 464, "length_m": 50, "rides_rough": 3, "rides_covering": 5, "both_directions": true, "severity": 2.0, "google_maps": "https://www.google.com/maps?q=34.0275521,-118.3839816", "start_m": 24400, "end_m": 24450, "label": "#7 \u00b7 2.0\u00d7 \u00b7 3/5 rides", "status": "Needs inspection", "source": "R pipeline (trackscan_R.R)"}, "geometry": {"type": "Point", "coordinates": [-118.383982, 34.027552]}}, {"type": "Feature", "properties": {"id": "H-07-zone", "rank": 7}, "geometry": {"type": "LineString", "coordinates": [[-118.383579, 34.027508], [-118.383939, 34.027549], [-118.384117, 34.027562]]}}, {"type": "Feature", "properties": {"id": "H-08", "rank": 8, "between": "<bound method Series.of rank                                                                        8\nzone                                                                        1\nstart_m                                                                 15500\nend_m                                                                   15575\nlength_m                                                                   75\npeak_bin                                                                  620\npeak_m                                                                15512.5\nseverity                                                             1.992502\nrecordings_covering_peak                                                    6\nhot_fraction_peak                                                         0.5\nrides_rough                                                                 3\nrides_covering                                                              5\nrough_ride_ids                                                          1;3;5\ncovering_ride_ids                                                   1;2;3;4;5\nboth_directions                                                          True\nnearest_station                                               Expo Park / USC\ndist_to_station_m                                                       231.5\nbetween                              between Expo Park / USC \u2192 Expo / Vermont\ncross_street                                                Exposition / Watt\nstation_zone                                                            False\nlat                                                                 34.018258\nlon                                                               -118.288245\ngoogle_maps                 https://www.google.com/maps?q=34.0182584,-118....\nrepeat_fraction                                                           0.6\nrank_score                                                           1.494376\nName: 7, dtype: object>", "cross_street": "Exposition / Watt", "nearest_station": "Expo Park / USC", "dist_to_station_m": 232, "length_m": 75, "rides_rough": 3, "rides_covering": 5, "both_directions": true, "severity": 2.0, "google_maps": "https://www.google.com/maps?q=34.0182584,-118.2882449", "start_m": 15500, "end_m": 15575, "label": "#8 \u00b7 2.0\u00d7 \u00b7 3/5 rides", "status": "Needs inspection", "source": "R pipeline (trackscan_R.R)"}, "geometry": {"type": "Point", "coordinates": [-118.288245, 34.018258]}}, {"type": "Feature", "properties": {"id": "H-08-zone", "rank": 8}, "geometry": {"type": "LineString", "coordinates": [[-118.288109, 34.018258], [-118.288668, 34.01826], [-118.288922, 34.01826]]}}, {"type": "Feature", "properties": {"id": "H-09", "rank": 9, "between": "<bound method Series.of rank                                                                        9\nzone                                                                        7\nstart_m                                                                 22450\nend_m                                                                   22475\nlength_m                                                                   25\npeak_bin                                                                  898\npeak_m                                                                22462.5\nseverity                                                             1.740824\nrecordings_covering_peak                                                    9\nhot_fraction_peak                                                    0.555556\nrides_rough                                                                 3\nrides_covering                                                              5\nrough_ride_ids                                                          1;2;4\ncovering_ride_ids                                                   1;2;3;4;5\nboth_directions                                                          True\nnearest_station                                Expo / La Brea / Ethel Bradley\ndist_to_station_m                                                       701.5\nbetween                     between Expo / La Brea / Ethel Bradley \u2192 La Ci...\ncross_street                                              Jefferson / Cochran\nstation_zone                                                            False\nlat                                                                 34.025544\nlon                                                               -118.362714\ngoogle_maps                 https://www.google.com/maps?q=34.0255443,-118....\nrepeat_fraction                                                           0.6\nrank_score                                                           1.305618\nName: 8, dtype: object>", "cross_street": "Jefferson / Cochran", "nearest_station": "Expo / La Brea / Ethel Bradley", "dist_to_station_m": 702, "length_m": 25, "rides_rough": 3, "rides_covering": 5, "both_directions": true, "severity": 1.7, "google_maps": "https://www.google.com/maps?q=34.0255443,-118.3627137", "start_m": 22450, "end_m": 22475, "label": "#9 \u00b7 1.7\u00d7 \u00b7 3/5 rides", "status": "Needs inspection", "source": "R pipeline (trackscan_R.R)"}, "geometry": {"type": "Point", "coordinates": [-118.362714, 34.025544]}}, {"type": "Feature", "properties": {"id": "H-09-zone", "rank": 9}, "geometry": {"type": "LineString", "coordinates": [[-118.362579, 34.025532], [-118.362848, 34.025557]]}}]}